[{"OBJECT_NAME":"STARLINK-34007","OBJECT_ID":"2025-094E","EPOCH":"2026-03-09T20:31:26.186880","MEAN_MOTION":14.98405216,"ECCENTRICITY":0.00045816,"INCLINATION":70.0017,"RA_OF_ASC_NODE":234.2102,"ARG_OF_PERICENTER":277.8261,"MEAN_ANOMALY":82.2378,"EPHEMERIS_TYPE":0,"CLASSIFICATION_TYPE":"U","NORAD_CAT_ID":63868,"ELEMENT_SET_NO":999,"REV_AT_EPOCH":4722,"BSTAR":-0.00099610286,"MEAN_MOTION_DOT":-0.00011983,"MEAN_MOTION_DDOT":0},{"OBJECT_NAME":"TIANPING 3B-02","OBJECT_ID":"2024-189C","EPOCH":"2026-03-09T23:37:53.455008","MEAN_MOTION":15.00973029,"ECCENTRICITY":0.00020237,"INCLINATION":97.5355,"RA_OF_ASC_NODE":92.3046,"ARG_OF_PERICENTER":72.7812,"MEAN_ANOMALY":287.3634,"EPHEMERIS_TYPE":0,"CLASSIFICATION_TYPE":"U","NORAD_CAT_ID":61616,"ELEMENT_SET_NO":999,"REV_AT_EPOCH":7556,"BSTAR":0.00030065789,"MEAN_MOTION_DOT":3.778e-5,"MEAN_MOTION_DDOT":0}]
